    PK10J030  2010 08 28.5429  2.439330  0.727808  157.4924  106.4227   13.2855  20190228  11.0  4.0  P/2010 J3 (McMillan)                                     MPC_82316
    PK10J81C  2011 04 19.1826  1.819414  0.775879   12.5102   30.8326   38.6246  20190228   9.0  4.0  P/2010 JC81 (WISE)                                       MPC_84315
    CK10K07W  2010 10 13.8727  2.568899  0.973905  332.7216  105.1699  147.0329  20190228  15.0  2.0  C/2010 KW7 (WISE)                                        MPC_74248
    CK10L030  2010 11  9.1741  9.911367  0.999692  121.9341   38.2859  102.5095  20190228   4.5  4.0  C/2010 L3 (Catalina)                                     MPC_83518
    CK10L040  2010 02 24.5457  2.811446  0.964527   95.5878  125.3469  102.7053  20190228  11.5  4.0  C/2010 L4 (WISE)                                         MPC112389
    CK10L050  2010 04 16.9919  0.785523  0.902095  214.3598  206.4116  146.9020  20190228  18.0  4.0  C/2010 L5 (WISE)                                         MPC_74248
    CK10R010  2012 05 17.4254  5.649309  1.000098  114.7654  343.7341  156.9536  20190228   6.0  4.0  C/2010 R1 (LINEAR)                                       MPC_88325
    CK10S010  2013 05 16.9971  5.898441  0.999935  118.4694   93.4085  125.2853  20190228   3.5  4.0  C/2010 S1 (LINEAR)                                       MPC111766
    PK10T020  2024 04 14.7535  3.719083  0.320735  354.9417   59.5403    8.0307  20190228  11.5  4.0  P/2010 T2 (PANSTARRS)                                    MPC_74248
    PK10T20O  2022 12  2.0413  5.512857  0.053075  267.6148   43.3011    2.4807  20190228   9.0  4.0  P/2010 TO20 (LINEAR-Grauer)                              MPC_81468
    PK10U010  2026 09 10.8005  4.910349  0.246632   85.9260  280.7156    8.2140  20190228   9.5  4.0  P/2010 U1 (Boattini)                                     MPC_82316
    PK10U020  2019 09 15.3326  2.567617  0.400842   44.3460  357.0823   16.8281  20190228  13.0  4.0  P/2010 U2 (Hill)                                         MPC_74249
    CK10U030  2019 02 26.6287  8.445514  0.998424   88.0864   43.0678   55.5118  20190228   1.0  4.0  C/2010 U3 (Boattini)                                     MPC112389
    PK10U55H  2011 04 29.6794  2.888735  0.565166  225.0736  233.2963    8.0887  20190228  11.0  4.0  P/2010 UH55 (Spacewatch)                                 MPC_79021
    PK10W00K  2024 07 25.4615  1.786724  0.689513   41.0698   11.3388   11.4040  20190228  14.5  2.0  P/2010 WK (LINEAR)                                       MPC_75009
    CK10X010  2011 09 11.2463  0.465934  0.999024  344.7293  321.7700    1.8918  20190228  10.0  4.0  C/2010 X1 (Elenin)                                       MPC_76025
    PK11A020  2016 06 13.5357  1.553459  0.499517   94.5965   54.6679    4.4755  20190228  16.5  4.0  P/2011 A2 (Scotti)                                       MPC_82317
    CK11A030  2011 12 18.4869  2.333068  0.997449  141.2394  124.6336   26.0916  20190228  10.0  4.0  C/2011 A3 (Gibbs)                                        MPC_85831
    CK11C010  2011 04 20.3481  0.875972  0.998390   85.7657  191.1013   16.2874  20190228  15.5  4.0  C/2011 C1 (McNaught)                                     MPC_82317
    PK11C020  2012 01 10.4906  5.409694  0.270071  161.1745   12.1027   10.8894  20190228   9.0  4.0  P/2011 C2 (Gibbs)                                        MPC_84021
    CK11C030  2011 04 10.0144  1.516516  0.995282  206.8505   20.8397   49.4402  20190228  17.0  4.0  C/2011 C3 (Gibbs)                                        MPC_75516
    PK11C42R  2018 06 22.0880  2.521157  0.281091  172.9895   58.7180    8.4641  20190228  17.5  2.0  P/2011 CR42 (Catalina)                                   MPC_86639
    CK11F010  2013 01  9.2492  1.814738  0.999591  192.5476   84.9779   56.7818  20190228   5.0  4.0  C/2011 F1 (LINEAR)                                       MPC_89309
    PK11FE3R  2011 03 10.3335  3.749775  0.452536  350.1863  190.9352   16.0095  20190228  14.0  2.0  P/2011 FR143 (Lemmon)                                    MPC_79866
    CK11G010  2011 09 18.5627  2.157570  1.001391  355.2226  153.1866  162.1805  20190228  12.0  4.0  C/2011 G1 (McNaught)                                     MPC_80044
    CK11J020  2013 12 25.9951  3.435352  1.001444   85.2158  163.9093  122.7234  20190228   5.5  3.6  C/2011 J2 (LINEAR)                                       MPC106343
    CK11J02b  2013 12 25.8733  3.434555  1.002204   85.1733  163.9058  122.7260  20190228   9.0  3.6  C/2011 J2-B (LINEAR)                                     MPEC_2015-K84
    CK11J02c  2013 12 25.9656  3.434392  1.002240   85.1905  163.9110  122.7214  20190228  11.0  3.6  C/2011 J2-C (LINEAR)                                     unp
    CK11J030  2011 01 19.9471  1.451106  0.925603   27.8064   21.5822  114.5049  20190228  15.0  4.0  C/2011 J3 (LINEAR)                                       MPC_75713
    PK11J15B  2012 01 22.8486  5.004312  0.318831  110.7451  153.6601   19.1465  20190228   9.0  4.0  P/2011 JB15 (Spacewatch-Boattini)                        MPC_82317
    CK11K010  2011 04 19.1196  3.390769  0.999454  167.0215   70.5434  122.6389  20190228  12.0  4.0  C/2011 K1 (Schwartz-Holvorcem)                           MPC_75516
    CK11K36P  2016 05 26.6244  4.880114  0.873382  180.5567  173.3668   18.9820  20190228   4.5  4.0  C/2011 KP36 (Spacewatch)                                 MPC112389
    CK11L010  2010 12 16.8992  2.249938  0.796274  294.5848  252.1109   65.4845  20190228  11.0  4.0  C/2011 L1 (McNaught)                                     MPC_83518
    CK11L020  2011 10 29.9310  1.951268  0.999703  257.0780  131.5354  104.5145  20190228  12.5  4.0  C/2011 L2 (McNaught)                                     MPC_78588
    CK11L030  2011 08  8.4945  1.923311  0.997946   27.6190  307.6988   87.4132  20190228  12.5  4.0  C/2011 L3 (McNaught)                                     MPC_77405
    CK11L040  2013 03  8.8296  0.299590  0.999892  333.5511   66.0398   83.8437  20190228   5.5  4.0  C/2011 L4 (PANSTARRS)                                    MPC103843
    CK11L060  2011 01 18.2000  6.813316  0.999876  331.5936  214.4561  171.4436  20190228   9.0  4.0  C/2011 L6 (Boattini)                                     MPC_82718
    CK11M010  2011 09  5.1703  0.908268  1.002369  119.6904  325.1094   70.1349  20190228  12.0  4.0  C/2011 M1 (LINEAR)                                       MPC_75714
    PK11N010  2012 05 21.0632  2.857846  0.542995  330.4297   77.6138   35.7009  20190228  11.5  4.0  P/2011 N1 (ASH)                                          MPC_87913
    PK11N01O  2024 01 14.6338  1.238030  0.775742  263.8230  295.8325   15.2478  20190228  15.0  4.0  P/2011 NO1 (Elenin)                                      MPC_75714
    CK11N020  2011 10 20.8629  2.552162  0.998685  357.0863  273.7873   33.7756  20190228  11.5  4.0  C/2011 N2 (McNaught)                                     MPC_76569
    CK11O010  2012 08 19.0120  3.887218  0.995046  232.3471   89.7691   76.6521  20190228   7.0  4.0  C/2011 O1 (LINEAR)                                       MPC_87476
    PK11P010  2010 07 11.4752  5.046450  0.325248  348.8704    4.2655    5.6503  20190228   9.0  4.0  P/2011 P1 (McNaught)                                     MPC_78186
    CK11P020  2010 09 13.1334  6.120341  0.370219   75.9594  203.9745    9.0038  20190228   8.5  4.0  C/2011 P2 (PANSTARRS)                                    MPC107047
    CK11Q010  2011 06 28.5526  6.764732  0.997870  135.7643  142.1374   94.8309  20190228   9.5  4.0  C/2011 Q1 (PANSTARRS)                                    MPC_79867
    CK11Q020  2012 01 19.5352  1.344093  0.998417   34.7196  287.1334   37.3691  20190228  10.0  4.0  C/2011 Q2 (McNaught)                                     MPC_79342
    PK11Q030  2022 08 20.4075  2.327412  0.531807  310.9455   32.0295    6.0533  20190228  13.5  4.0  P/2011 Q3 (McNaught)                                     MPC_77806
    CK11Q040  2011 09 18.8217  1.128681  0.972814    1.9552  251.9705  147.9721  20190228  12.5  4.0  C/2011 Q4 (SWAN)                                         MPC_79342
    CK11R010  2012 10 17.2427  2.095604  0.999900  308.9582  221.3305  116.1612  20190228   6.5  4.0  C/2011 R1 (McNaught)                                     MPC_88325
    PK11R030  2022 09 29.5836  3.505560  0.268844  224.0531  190.1755   19.2245  20190228  11.0  4.0  P/2011 R3 (Novichonok-Gerke)                             MPC_90269
    PK11S010  2014 08 17.0231  6.884483  0.199599  192.9213  218.9497    2.6828  20190228   8.0  4.0  P/2011 S1 (Gibbs)                                        MPC_98558
    CK11S020  2011 10 22.6832  1.128811  0.931187  192.3471  288.0908   17.4996  20190228  15.5  4.0  C/2011 S2 (Kowalski)                                     MPC_80897
    PK11U010  2020 08 19.5180  2.367147  0.416489  353.3168  134.9610   15.2291  20190228  14.5  4.0  P/2011 U1 (PANSTARRS)                                    MPC_78186
    PK11U020  2023 05 31.8757  4.496395  0.111514  141.7927  263.8970   10.0436  20190228  10.0  4.0  P/2011 U2 (Bressi)                                       MPC105540
    CK11U030  2012 06  1.2162  1.082015  0.999480  287.8349  228.1757  116.7101  20190228  14.0  4.0  C/2011 U3 (PANSTARRS)                                    MPC_78186
    PK11UD4A  2025 02 23.0288  2.074001  0.629475   32.5293   40.5336   10.4641  20190228  17.5  4.0  P/2011 UA134 (Spacewatch-PANSTARRS)                      MPC_79022
    CK11UU5F  2012 07 21.5682  2.139710  0.999347  121.9950  297.7046   94.0536  20190228   9.0  4.0  C/2011 UF305 (LINEAR)                                    MPC_88325
    PK11V010  2018 10  1.9202  1.731639  0.550394  269.1709   46.8688    7.3802  20190228  15.5  4.0  P/2011 V1 (Boattini)                                     MPC_77406
    PK11W010  2022 02  8.3982  3.325054  0.286351  282.7335  161.7915    3.7182  20190228  11.5  4.0  P/2011 W1 (PANSTARRS)                                    MPC_82718
